[{"OBJECT_NAME":"YAOGAN-22","OBJECT_ID":"2014-063A","EPOCH":"2026-03-09T22:32:09.245760","MEAN_MOTION":13.15527162,"ECCENTRICITY":0.00066374,"INCLINATION":100.7539,"RA_OF_ASC_NODE":218.6258,"ARG_OF_PERICENTER":57.4372,"MEAN_ANOMALY":302.7379,"EPHEMERIS_TYPE":0,"CLASSIFICATION_TYPE":"U","NORAD_CAT_ID":40275,"ELEMENT_SET_NO":999,"REV_AT_EPOCH":54676,"BSTAR":6.3182543e-5,"MEAN_MOTION_DOT":-2.3e-7,"MEAN_MOTION_DDOT":0},{"OBJECT_NAME":"ONEWEB-0379","OBJECT_ID":"2021-090AC","EPOCH":"2026-03-09T16:53:57.719328","MEAN_MOTION":13.14503543,"ECCENTRICITY":0.00014927,"INCLINATION":87.8989,"RA_OF_ASC_NODE":309.5576,"ARG_OF_PERICENTER":81.3964,"MEAN_ANOMALY":278.7335,"EPHEMERIS_TYPE":0,"CLASSIFICATION_TYPE":"U","NORAD_CAT_ID":49305,"ELEMENT_SET_NO":999,"REV_AT_EPOCH":21449,"BSTAR":-0.00041273074,"MEAN_MOTION_DOT":-1.4e-6,"MEAN_MOTION_DDOT":0}]
